ONEWEB-0136             
1 47282U 20100AA  25274.06143666 -.00000156  00000+0 -46871-3 0  9990
2 47282  87.8937  42.1208 0001740 114.4882 245.6428 13.12441702230678
ONEWEB-0137             
1 47283U 20100AB  25273.86678416 -.00000019  00000+0 -88070-4 0  9990
2 47283  87.8937  42.1654 0001858  96.6123 263.5217 13.12443710230556
ONEWEB-0138             
1 47284U 20100AC  25273.84567655 -.00000397  00000+0 -11390-2 0  9999
2 47284  87.8934  42.1793 0001688 105.7896 254.3418 13.12440521230635
ONEWEB-0139             
1 47285U 20100AD  25274.11349333  .00000513  00000+0  13917-2 0  9997
2 47285  87.8933  42.1166 0001659  99.7202 260.4114 13.12444094230742
ONEWEB-0140             
1 47286U 20100AE  25274.06791291 -.00000367  00000+0 -10561-2 0  9997
2 47286  87.8935  42.1107 0001675 103.2521 256.8794 13.12442005230702
ONEWEB-0141             
1 47287U 20100AF  25274.11319811  .00000175  00000+0  44983-3 0  9999
2 47287  87.8928  42.1156 0002001  94.5393 265.5964 13.12443035230690
ONEWEB-0142             
1 47288U 20100AG  25274.10213272  .00000182  00000+0  47120-3 0  9997
2 47288  87.8941  42.1357 0002064  99.0357 261.1005 13.12443571230680
ONEWEB-0143             
1 47289U 20100AH  25273.88299889  .00000207  00000+0  54037-3 0  9993
2 47289  87.8937  42.1758 0001666  99.2397 260.8920 13.12443040230632
